{"type": "FeatureCollection", "features": [ {"type": "Feature", "properties": {"norad_id": 52984, "name": "COSMOS 2557 (706K)", "group": "gnss", "lat": 2.6037080592449615, "lon": 140.1141614113716, "alt_km": 19135.724620361987, "timestamp": "2025-12-03T15:48:03.316916+00:00", "meta": {"OBJECT_NAME": "COSMOS 2557 (706K)", "OBJECT_ID": "2022-075A", "EPOCH": "2025-12-01T01:56:28.375008", "MEAN_MOTION": 2.13101767, "ECCENTRICITY": 0.00137561, "INCLINATION": 64.4163, "RA_OF_ASC_NODE": 321.4618, "ARG_OF_PERICENTER": 276.3647, "MEAN_ANOMALY": 83.4921, "EPHEMERIS_TYPE": 0, "CLASSIFICATION_TYPE": "U", "NORAD_CAT_ID": 52984, "ELEMENT_SET_NO": 999, "REV_AT_EPOCH": 2649, "BSTAR": 0, "MEAN_MOTION_DOT": -2.7e-07, "MEAN_MOTION_DDOT": 0}, "tle": {"line1": "1 52984U 22075A   25335.08088397 -.00000027  00000+0  00000+0 0  9993", "line2": "2 52984  64.4163 321.4618 0013756 276.3647  83.4921  2.13101767 26492"}}, "geometry": {"type": "Point", "coordinates": [140.1141614113716, 2.6037080592449615]}}, {"type": "Feature", "properties": {"norad_id": 54031, "name": "COSMOS 2559 (707K)", "group": "gnss", "lat": -38.613665298418546, "lon": -61.07910778543746, "alt_km": 19151.70600460525, "timestamp": "2025-12-03T15:48:03.316926+00:00", "meta": {"OBJECT_NAME": "COSMOS 2559 (707K)", "OBJECT_ID": "2022-130A", "EPOCH": "2025-12-03T05:54:42.850656", "MEAN_MOTION": 2.13101242, "ECCENTRICITY": 0.00120483, "INCLINATION": 64.3873, "RA_OF_ASC_NODE": 321.4753, "ARG_OF_PERICENTER": 192.7685, "MEAN_ANOMALY": 167.2057, "EPHEMERIS_TYPE": 0, "CLASSIFICATION_TYPE": "U", "NORAD_CAT_ID": 54031, "ELEMENT_SET_NO": 999, "REV_AT_EPOCH": 2451, "BSTAR": 0, "MEAN_MOTION_DOT": -4.1e-07, "MEAN_MOTION_DDOT": 0}, "tle": {"line1": "1 54031U 22130A   25337.24632929 -.00000041  00000+0  00000+0 0  9992", "line2": "2 54031  64.3873 321.4753 0012048 192.7685 167.2057  2.13101242 24510"}}, "geometry": {"type": "Point", "coordinates": [-61.07910778543746, -38.613665298418546]}}, {"type": "Feature", "properties": {"norad_id": 54377, "name": "COSMOS 2564 (761)", "group": "gnss", "lat": 61.09140354054585, "lon": -102.06134927724335, "alt_km": 19137.793354432208, "timestamp": "2025-12-03T15:48:03.316938+00:00", "meta": {"OBJECT_NAME": "COSMOS 2564 (761)", "OBJECT_ID": "2022-161A", "EPOCH": "2025-12-03T02:10:28.661664", "MEAN_MOTION": 2.13101969, "ECCENTRICITY": 0.00087165, "INCLINATION": 64.7377, "RA_OF_ASC_NODE": 199.2195, "ARG_OF_PERICENTER": 206.2695, "MEAN_ANOMALY": 153.783, "EPHEMERIS_TYPE": 0, "CLASSIFICATION_TYPE": "U", "NORAD_CAT_ID": 54377, "ELEMENT_SET_NO": 999, "REV_AT_EPOCH": 2345, "BSTAR": 0, "MEAN_MOTION_DOT": 1.07e-06, "MEAN_MOTION_DDOT": 0}, "tle": {"line1": "1 54377U 22161A   25337.09060951  .00000107  00000+0  00000+0 0  9994", "line2": "2 54377  64.7377 199.2195 0008716 206.2695 153.7830  2.13101969 23453"}}, "geometry": {"type": "Point", "coordinates": [-102.06134927724335, 61.09140354054585]}}, {"type": "Feature", "properties": {"norad_id": 55268, "name": "GPS BIII-6  (PRN 28)", "group": "gnss", "lat": 51.916471095692884, "lon": -86.81951292250943, "alt_km": 20179.4145150349, "timestamp": "2025-12-03T15:48:03.316949+00:00", "meta": {"OBJECT_NAME": "GPS BIII-6  (PRN 28)", "OBJECT_ID": "2023-009A", "EPOCH": "2025-12-02T00:29:31.953408", "MEAN_MOTION": 2.00556444, "ECCENTRICITY": 0.00034715, "INCLINATION": 55.1057, "RA_OF_ASC_NODE": 156.2669, "ARG_OF_PERICENTER": 359.2649, "MEAN_ANOMALY": 4.3682, "EPHEMERIS_TYPE": 0, "CLASSIFICATION_TYPE": "U", "NORAD_CAT_ID": 55268, "ELEMENT_SET_NO": 999, "REV_AT_EPOCH": 2129, "BSTAR": 0, "MEAN_MOTION_DOT": 1.22e-06, "MEAN_MOTION_DDOT": 0}, "tle": {"line1": "1 55268U 23009A   25336.02050872  .00000122  00000+0  00000+0 0  9996", "line2": "2 55268  55.1057 156.2669 0003471 359.2649   4.3682  2.00556444 21296"}}, "geometry": {"type": "Point", "coordinates": [-86.81951292250943, 51.916471095692884]}}, {"type": "Feature", "properties": {"norad_id": 56564, "name": "BEIDOU-3 G4 (C62)", "group": "gnss", "lat": 0.17721432145999352, "lon": 109.76579981402647, "alt_km": 35780.76692287516, "timestamp": "2025-12-03T15:48:03.316959+00:00", "meta": {"OBJECT_NAME": "BEIDOU-3 G4 (C62)", "OBJECT_ID": "2023-066A", "EPOCH": "2025-12-03T08:08:38.649408", "MEAN_MOTION": 1.0027097, "ECCENTRICITY": 0.0003346, "INCLINATION": 0.837, "RA_OF_ASC_NODE": 301.2389, "ARG_OF_PERICENTER": 235.16, "MEAN_ANOMALY": 178.2612, "EPHEMERIS_TYPE": 0, "CLASSIFICATION_TYPE": "U", "NORAD_CAT_ID": 56564, "ELEMENT_SET_NO": 999, "REV_AT_EPOCH": 943, "BSTAR": 0, "MEAN_MOTION_DOT": -9.2e-07, "MEAN_MOTION_DDOT": 0}, "tle": {"line1": "1 56564U 23066A   25337.33933622 -.00000092  00000+0  00000+0 0  9994", "line2": "2 56564   0.8370 301.2389 0003346 235.1600 178.2612  1.00270970  9434"}}, "geometry": {"type": "Point", "coordinates": [109.76579981402647, 0.17721432145999352]}}, {"type": "Feature", "properties": {"norad_id": 56759, "name": "NVS-01 (IRNSS-1J)", "group": "gnss", "lat": -0.316046236160847, "lon": 79.25781330296374, "alt_km": 35823.93486490355, "timestamp": "2025-12-03T15:48:03.316970+00:00", "meta": {"OBJECT_NAME": "NVS-01 (IRNSS-1J)", "OBJECT_ID": "2023-076A", "EPOCH": "2025-12-03T07:31:26.538240", "MEAN_MOTION": 1.00267297, "ECCENTRICITY": 0.00086168, "INCLINATION": 2.6434, "RA_OF_ASC_NODE": 251.9459, "ARG_OF_PERICENTER": 6.1555, "MEAN_ANOMALY": 56.7087, "EPHEMERIS_TYPE": 0, "CLASSIFICATION_TYPE": "U", "NORAD_CAT_ID": 56759, "ELEMENT_SET_NO": 999, "REV_AT_EPOCH": 915, "BSTAR": 0, "MEAN_MOTION_DOT": -3.15e-06, "MEAN_MOTION_DDOT": 0}, "tle": {"line1": "1 56759U 23076A   25337.31350160 -.00000315  00000+0  00000+0 0  9997", "line2": "2 56759   2.6434 251.9459 0008616   6.1555  56.7087  1.00267297  9153"}}, "geometry": {"type": "Point", "coordinates": [79.25781330296374, -0.316046236160847]}}, {"type": "Feature", "properties": {"norad_id": 57517, "name": "COSMOS 2569 (703K)", "group": "gnss", "lat": 55.55381679936848, "lon": 121.54840716720278, "alt_km": 19142.699060474944, "timestamp": "2025-12-03T15:48:03.316980+00:00", "meta": {"OBJECT_NAME": "COSMOS 2569 (703K)", "OBJECT_ID": "2023-114A", "EPOCH": "2025-12-01T05:26:50.828352", "MEAN_MOTION": 2.13103848, "ECCENTRICITY": 0.0010073, "INCLINATION": 65.188, "RA_OF_ASC_NODE": 79.3026, "ARG_OF_PERICENTER": 287.0136, "MEAN_ANOMALY": 72.876, "EPHEMERIS_TYPE": 0, "CLASSIFICATION_TYPE": "U", "NORAD_CAT_ID": 57517, "ELEMENT_SET_NO": 999, "REV_AT_EPOCH": 1804, "BSTAR": 0, "MEAN_MOTION_DOT": -1.2e-07, "MEAN_MOTION_DDOT": 0}, "tle": {"line1": "1 57517U 23114A   25335.22697718 -.00000012  00000+0  00000+0 0  9998", "line2": "2 57517  65.1880  79.3026 0010073 287.0136  72.8760  2.13103848 18043"}}, "geometry": {"type": "Point", "coordinates": [121.54840716720278, 55.55381679936848]}}, {"type": "Feature", "properties": {"norad_id": 58654, "name": "BEIDOU-3 M28 (C50)", "group": "gnss", "lat": -41.704371820772074, "lon": -73.48887546411436, "alt_km": 21528.343188895757, "timestamp": "2025-12-03T15:48:03.316990+00:00", "meta": {"OBJECT_NAME": "BEIDOU-3 M28 (C50)", "OBJECT_ID": "2023-207A", "EPOCH": "2025-12-02T18:32:49.254720", "MEAN_MOTION": 1.86229565, "ECCENTRICITY": 0.00020071, "INCLINATION": 55.5759, "RA_OF_ASC_NODE": 68.9391, "ARG_OF_PERICENTER": 265.1815, "MEAN_ANOMALY": 94.7983, "EPHEMERIS_TYPE": 0, "CLASSIFICATION_TYPE": "U", "NORAD_CAT_ID": 58654, "ELEMENT_SET_NO": 999, "REV_AT_EPOCH": 1318, "BSTAR": 0, "MEAN_MOTION_DOT": -4.9e-07, "MEAN_MOTION_DDOT": 0}, "tle": {"line1": "1 58654U 23207A   25336.77279230 -.00000049  00000+0  00000+0 0  9990", "line2": "2 58654  55.5759  68.9391 0002007 265.1815  94.7983  1.86229565 13186"}}, "geometry": {"type": "Point", "coordinates": [-73.48887546411436, -41.704371820772074]}}, {"type": "Feature", "properties": {"norad_id": 58655, "name": "BEIDOU-3 M26 (C48)", "group": "gnss", "lat": 7.704026021044523, "lon": 74.21075482125498, "alt_km": 21531.983025107806, "timestamp": "2025-12-03T15:48:03.316999+00:00", "meta": {"OBJECT_NAME": "BEIDOU-3 M26 (C48)", "OBJECT_ID": "2023-207B", "EPOCH": "2025-12-03T02:34:45.227424", "MEAN_MOTION": 1.86231091, "ECCENTRICITY": 0.00034591, "INCLINATION": 55.5782, "RA_OF_ASC_NODE": 68.9139, "ARG_OF_PERICENTER": 250.5367, "MEAN_ANOMALY": 109.429, "EPHEMERIS_TYPE": 0, "CLASSIFICATION_TYPE": "U", "NORAD_CAT_ID": 58655, "ELEMENT_SET_NO": 999, "REV_AT_EPOCH": 1317, "BSTAR": 0, "MEAN_MOTION_DOT": -5e-07, "MEAN_MOTION_DDOT": 0}, "tle": {"line1": "1 58655U 23207B   25337.10746791 -.00000050  00000+0  00000+0 0  9992", "line2": "2 58655  55.5782  68.9139 0003459 250.5367 109.4290  1.86231091 13176"}}, "geometry": {"type": "Point", "coordinates": [74.21075482125498, 7.704026021044523]}}, {"type": "Feature", "properties": {"norad_id": 59598, "name": "GSAT0225 (GALILEO 29)", "group": "gnss", "lat": 52.405762626092184, "lon": -138.93039986506307, "alt_km": 23213.47740861551, "timestamp": "2025-12-03T15:48:03.317010+00:00", "meta": {"OBJECT_NAME": "GSAT0225 (GALILEO 29)", "OBJECT_ID": "2024-079A", "EPOCH": "2025-12-01T03:29:20.871744", "MEAN_MOTION": 1.70474544, "ECCENTRICITY": 0.0002155, "INCLINATION": 54.9941, "RA_OF_ASC_NODE": 106.6197, "ARG_OF_PERICENTER": 171.5653, "MEAN_ANOMALY": 190.7741, "EPHEMERIS_TYPE": 0, "CLASSIFICATION_TYPE": "U", "NORAD_CAT_ID": 59598, "ELEMENT_SET_NO": 999, "REV_AT_EPOCH": 994, "BSTAR": 0, "MEAN_MOTION_DOT": 4.1e-07, "MEAN_MOTION_DDOT": 0}, "tle": {"line1": "1 59598U 24079A   25335.14538046  .00000041  00000+0  00000+0 0  9990", "line2": "2 59598  54.9941 106.6197 0002155 171.5653 190.7741  1.70474544  9948"}}, "geometry": {"type": "Point", "coordinates": [-138.93039986506307, 52.405762626092184]}}]}